<?xml version="1.0" encoding="UTF-8"?>
<kml xmlns="http://www.opengis.net/kml/2.2">
  <Document>
    <name>Example Map</name>

    <Placemark>
      <name>Buoy 1</name>
      <Point>
        <coordinates>10.0001,45.0001,0</coordinates>
      </Point>
    </Placemark>

    <Placemark>
      <name>Marker A</name>
      <Point>
        <coordinates>10.0030,45.0030,0</coordinates>
      </Point>
    </Placemark>

    <Placemark>
      <name>Pipe 1</name>
      <LineString>
        <coordinates>
          10.0030,45.0030,0
          10.0020,45.0010,0
        </coordinates>
      </LineString>
    </Placemark>
  </Document>
</kml>
